NORAD_CAT_ID,OBJECT_NAME,OBJECT_TYPE,EPOCH,MEAN_MOTION,ECCENTRICITY,INCLINATION,RA_OF_ASC_NODE,ARG_OF_PERICENTER,MEAN_ANOMALY,BSTAR,MEAN_MOTION_DOT,MEAN_MOTION_DDOT,TLE_LINE0,TLE_LINE1,TLE_LINE2,SEMIMAJOR_AXIS,PERIOD,APOGEE,PERIGEE,DECAYED
55931.0,STARLINK-5897,PAYLOAD,2023-12-02 03:29:41,14.98354743,0.0002533,69.9998,233.332,255.5498,104.538,0.00026574,3.081e-05,0.0,0 STARLINK-5897,1 55931U 23037T   23336.14562023  .00003081  00000-0  26574-3 0  9997,2 55931  69.9998 233.3320 0002533 255.5498 104.5380 14.98354743 39722,6950.116,96.105,573.742,570.221,0.0
55931.0,STARLINK-5897,PAYLOAD,2023-12-02 19:31:04,14.98322908,0.0002527,69.9992,231.6481,264.0515,96.0356,-1.6515e-05,-2.9e-06,0.0,0 STARLINK-5897,1 55931U 23037T   23336.81324653 -.00000290  00000-0 -16515-4 0  9992,2 55931  69.9992 231.6481 0002527 264.0515  96.0356 14.98322908 39820,6950.215,96.107,573.836,570.324,0.0
55931.0,STARLINK-5897,PAYLOAD,2023-12-02 22:43:20,14.98321084,0.0002432,69.9993,231.3116,261.2831,98.8053,-3.5866e-05,-5.21e-06,0.0,0 STARLINK-5897,1 55931U 23037T   23336.94676837 -.00000521  00000-0 -35866-4 0  9997,2 55931  69.9993 231.3116 0002432 261.2831  98.8053 14.98321084 39501,6950.22,96.108,573.776,570.395,0.0
55931.0,STARLINK-5897,PAYLOAD,2023-12-03 03:31:45,14.98321759,0.0002695,69.9988,230.8063,266.6579,93.4272,-3.951e-05,-5.64e-06,0.0,0 STARLINK-5897,1 55931U 23037T   23337.14704898 -.00000564  00000-0 -39510-4 0  9996,2 55931  69.9988 230.8063 0002695 266.6579  93.4272 14.98321759 39535,6950.218,96.108,573.956,570.21,0.0
55931.0,STARLINK-5897,PAYLOAD,2023-12-03 19:33:05,14.98332275,0.000266,69.9987,229.1226,268.7545,91.331,-0.00024782,-3.049e-05,0.0,0 STARLINK-5897,1 55931U 23037T   23337.81465042 -.00003049  00000-0 -24782-3 0  9990,2 55931  69.9987 229.1226 0002660 268.7545  91.3310 14.98332275 39977,6950.186,96.107,573.9,570.202,0.0
55931.0,STARLINK-5897,PAYLOAD,2023-12-04 01:57:37,14.98335407,0.0002601,69.9989,228.4495,268.2764,91.8097,-0.00021995,-2.717e-05,0.0,0 STARLINK-5897,1 55931U 23037T   23338.08168720 -.00002717  00000-0 -21995-3 0  9997,2 55931  69.9989 228.4495 0002601 268.2764  91.8097 14.98335407 39676,6950.176,96.107,573.849,570.233,0.0
55931.0,STARLINK-5897,PAYLOAD,2023-12-05 01:59:38,14.98328352,0.0002643,69.9989,225.9245,274.2163,85.8694,0.00014205,1.602e-05,0.0,0 STARLINK-5897,1 55931U 23037T   23339.08308227  .00001602  00000-0  14205-3 0  9992,2 55931  69.9989 225.9245 0002643 274.2163  85.8694 14.98328352 40160,6950.198,96.107,573.9,570.226,0.0
55931.0,STARLINK-5897,PAYLOAD,2023-12-06 02:01:39,14.9833069,0.0002775,69.9987,223.3994,275.6577,84.4265,7.5772e-05,8.11e-06,0.0,0 STARLINK-5897,1 55931U 23037T   23340.08448282  .00000811  00000-0  75772-4 0  9998,2 55931  69.9987 223.3994 0002775 275.6577  84.4265 14.98330690 40315,6950.191,96.107,573.984,570.127,0.0
55931.0,STARLINK-5897,PAYLOAD,2023-12-06 22:51:24,14.98330054,0.0002391,70.0003,221.2083,289.4877,70.6024,-4.7568e-05,-6.6e-06,0.0,0 STARLINK-5897,1 55931U 23037T   23340.95236800 -.00000660  00000-0 -47568-4 0  9991,2 55931  70.0003 221.2083 0002391 289.4877  70.6024 14.98330054 40104,6950.193,96.107,573.72,570.396,0.0
55931.0,STARLINK-5897,PAYLOAD,2023-12-07 02:03:40,14.98328978,0.0002444,69.9995,220.8742,285.9122,74.1767,-6.0679e-05,-8.17e-06,0.0,0 STARLINK-5897,1 55931U 23037T   23341.08588888 -.00000817  00000-0 -60679-4 0  9994,2 55931  69.9995 220.8742 0002444 285.9122  74.1767 14.98328978 40465,6950.196,96.107,573.76,570.362,0.0
55931.0,STARLINK-5897,PAYLOAD,2023-12-08 02:05:41,14.98335424,0.000271,69.998,218.3503,279.2248,80.8604,-1.7799e-05,-3.05e-06,0.0,0 STARLINK-5897,1 55931U 23037T   23342.08728090 -.00000305  00000-0 -17799-4 0  9993,2 55931  69.9980 218.3503 0002710 279.2248  80.8604 14.98335424 40612,6950.176,96.107,573.925,570.158,0.0
55931.0,STARLINK-5897,PAYLOAD,2023-12-08 14:54:45,14.98333359,0.0002633,69.9975,217.0046,281.2359,78.8504,1.9639e-06,-7e-07,0.0,0 STARLINK-5897,1 55931U 23037T   23342.62136192 -.00000070  00000-0  19639-5 0  9993,2 55931  69.9975 217.0046 0002633 281.2359  78.8504 14.98333359 40356,6950.183,96.107,573.877,570.218,0.0
55931.0,STARLINK-5897,PAYLOAD,2023-12-09 02:07:42,14.98332911,0.0002672,69.9974,215.8262,280.3033,79.7825,-2.469e-06,-1.22e-06,0.0,0 STARLINK-5897,1 55931U 23037T   23343.08868101 -.00000122  00000-0 -24690-5 0  9998,2 55931  69.9974 215.8262 0002672 280.3033  79.7825 14.98332911 40767,6950.184,96.107,573.906,570.192,0.0
55931.0,STARLINK-5897,PAYLOAD,2023-12-10 19:47:11,14.98329586,0.0002529,69.9986,211.4494,265.7403,94.3467,-2.0662e-05,-3.39e-06,0.0,0 STARLINK-5897,1 55931U 23037T   23344.82444084 -.00000339  00000-0 -20662-4 0  9995,2 55931  69.9986 211.4494 0002529 265.7403  94.3467 14.98329586 41027,6950.194,96.107,573.817,570.301,0.0
55931.0,STARLINK-5897,PAYLOAD,2023-12-10 21:23:19,14.983295,0.0002462,69.9981,211.2792,260.9697,99.1183,-2.6974e-05,-4.15e-06,0.0,0 STARLINK-5897,1 55931U 23037T   23344.89120076 -.00000415  00000-0 -26974-4 0  9991,2 55931  69.9981 211.2792 0002462 260.9697  99.1183 14.98329500 40695,6950.194,96.107,573.771,570.348,0.0
55931.0,STARLINK-5897,PAYLOAD,2023-12-11 00:35:35,14.98329066,0.0002474,69.9982,210.9429,262.0549,98.0329,-2.9754e-05,-4.48e-06,0.0,0 STARLINK-5897,1 55931U 23037T   23345.02472119 -.00000448  00000-0 -29754-4 0  9990,2 55931  69.9982 210.9429 0002474 262.0549  98.0329 14.98329066 40711,6950.196,96.107,573.78,570.341,0.0
55931.0,STARLINK-5897,PAYLOAD,2023-12-11 19:49:12,14.9832959,0.0002543,69.998,208.9234,263.7852,96.3017,2.34e-05,1.86e-06,0.0,0 STARLINK-5897,1 55931U 23037T   23345.82583902  .00000186  00000-0  23400-4 0  9990,2 55931  69.9980 208.9234 0002543 263.7852  96.3017 14.98329590 41170,6950.194,96.107,573.827,570.292,0.0
55931.0,STARLINK-5897,PAYLOAD,2023-12-11 21:25:20,14.9832959,0.0002514,69.998,208.7549,262.232,97.8554,2.6489e-05,2.23e-06,0.0,0 STARLINK-5897,1 55931U 23037T   23345.89259877  .00000223  00000-0  26489-4 0  9990,2 55931  69.9980 208.7549 0002514 262.2320  97.8554 14.98329590 40844,6950.194,96.107,573.806,570.312,0.0
55931.0,STARLINK-5897,PAYLOAD,2023-12-12 00:37:36,14.98329705,0.0002511,69.998,208.4183,262.3351,97.7523,2.6813e-05,2.27e-06,0.0,0 STARLINK-5897,1 55931U 23037T   23346.02611870  .00000227  00000-0  26813-4 0  9996,2 55931  69.9980 208.4183 0002511 262.3351  97.7523 14.98329705 40862,6950.194,96.107,573.804,570.314,0.0
55931.0,STARLINK-5897,PAYLOAD,2023-12-12 19:51:13,14.9832962,0.0002501,69.998,206.3981,261.5471,98.5404,2.0202e-05,1.48e-06,0.0,0 STARLINK-5897,1 55931U 23037T   23346.82723862  .00000148  00000-0  20202-4 0  9997,2 55931  69.9980 206.3981 0002501 261.5471  98.5404 14.98329620 41323,6950.194,96.107,573.797,570.321,0.0
55931.0,STARLINK-5897,PAYLOAD,2023-12-12 21:27:21,14.98329748,0.0002495,69.998,206.2299,261.4294,98.6582,2.1851e-05,1.68e-06,0.0,0 STARLINK-5897,1 55931U 23037T   23346.89399850  .00000168  00000-0  21851-4 0  9993,2 55931  69.9980 206.2299 0002495 261.4294  98.6582 14.98329748 40999,6950.194,96.107,573.793,570.325,0.0
55931.0,STARLINK-5897,PAYLOAD,2023-12-13 00:39:37,14.98330411,0.0002494,69.998,205.8933,261.8681,98.2195,2.7734e-05,2.38e-06,0.0,0 STARLINK-5897,1 55931U 23037T   23347.02751787  .00000238  00000-0  27734-4 0  9994,2 55931  69.9980 205.8933 0002494 261.8681  98.2195 14.98330411 41011,6950.192,96.107,573.79,570.323,0.0
55931.0,STARLINK-5897,PAYLOAD,2023-12-13 19:53:13,14.98334192,0.0002497,69.998,203.873,261.0187,99.0689,2.6886e-05,2.28e-06,0.0,0 STARLINK-5897,1 55931U 23037T   23347.82863392  .00000228  00000-0  26886-4 0  9994,2 55931  69.9980 203.8730 0002497 261.0187  99.0689 14.98334192 41477,6950.18,96.107,573.78,570.309,0.0
55931.0,STARLINK-5897,PAYLOAD,2023-12-13 21:29:22,14.9833432,0.0002479,69.9981,203.7048,260.6653,99.4226,2.9855e-05,2.63e-06,0.0,0 STARLINK-5897,1 55931U 23037T   23347.89539356  .00000263  00000-0  29855-4 0  9999,2 55931  69.9981 203.7048 0002479 260.6653  99.4226 14.98334320 41140,6950.18,96.107,573.767,570.322,0.0
55931.0,STARLINK-5897,PAYLOAD,2023-12-14 00:41:38,14.98334332,0.0002496,69.998,203.3681,262.0991,97.9885,2.7649e-05,2.37e-06,0.0,0 STARLINK-5897,1 55931U 23037T   23348.02891325  .00000237  00000-0  27649-4 0  9992,2 55931  69.9980 203.3681 0002496 262.0991  97.9885 14.98334332 41167,6950.179,96.107,573.779,570.31,0.0
55931.0,STARLINK-5897,PAYLOAD,2023-12-14 19:55:15,14.98328669,0.0002322,69.9985,201.3472,263.1032,96.9863,-6.226e-06,-1.67e-06,0.0,0 STARLINK-5897,1 55931U 23037T   23348.83003711 -.00000167  00000-0 -62260-5 0  9998,2 55931  69.9985 201.3472 0002322 263.1032  96.9863 14.98328669 41626,6950.197,96.107,573.676,570.448,0.0
55931.0,STARLINK-5897,PAYLOAD,2023-12-14 21:31:23,14.98327281,0.000235,69.9984,201.179,263.9007,96.1884,-2.3639e-05,-3.75e-06,0.0,0 STARLINK-5897,1 55931U 23037T   23348.89679854 -.00000375  00000-0 -23639-4 0  9998,2 55931  69.9984 201.1790 0002350 263.9007  96.1884 14.98327281 41294,6950.201,96.107,573.7,570.433,0.0
55931.0,STARLINK-5897,PAYLOAD,2023-12-15 00:43:39,14.98328838,0.0002342,69.9985,200.8429,262.6712,97.4181,-8.1109e-06,-1.9e-06,0.0,0 STARLINK-5897,1 55931U 23037T   23349.03031714 -.00000190  00000-0 -81109-5 0  9994,2 55931  69.9985 200.8429 0002342 262.6712  97.4181 14.98328838 41316,6950.196,96.107,573.689,570.434,0.0
55931.0,STARLINK-5897,PAYLOAD,2023-12-15 19:57:16,14.98326067,0.0002206,69.9997,198.8243,254.0067,106.0849,-4.1174e-05,-5.84e-06,0.0,0 STARLINK-5897,1 55931U 23037T   23349.83143990 -.00000584  00000-0 -41174-4 0  9996,2 55931  69.9997 198.8243 0002206 254.0067 106.0849 14.98326067 41776,6950.205,96.107,573.603,570.537,0.0
55931.0,STARLINK-5897,PAYLOAD,2023-12-15 21:33:24,14.98328254,0.0002302,69.9991,198.655,248.1552,111.9362,-2.5038e-05,-3.92e-06,0.0,0 STARLINK-5897,1 55931U 23037T   23349.89819752 -.00000392  00000-0 -25038-4 0  9996,2 55931  69.9991 198.6550 0002302 248.1552 111.9362 14.98328254 41448,6950.198,96.107,573.663,570.463,0.0
